[
    {
        "Altitude(m)": 554605.4524115773,
        "Argument of Periapsis(deg)": 0.019868973332140504,
        "Eccentricity": 0.0,
        "Inclination(deg)": 53.0,
        "Latitude(deg)": -2.5069889354376875,
        "Longitude(deg)": -70.50008157941885,
        "Mean Anomaly(deg)": -176.99792139726722,
        "RAAN(deg)": 209.9704301055841,
        "Satellite Name": "Starlink Shell 1 933",
        "Satellite Number": 933,
        "Semi-Major Axis(m)": 6931778.249405717,
        "Time(s)": 570
    },
    {
        "Altitude(m)": 554685.9823742594,
        "Argument of Periapsis(deg)": 0.02021755181165174,
        "Eccentricity": 0.0,
        "Inclination(deg)": 53.0,
        "Latitude(deg)": -3.0105317913289444,
        "Longitude(deg)": -70.16388533458934,
        "Mean Anomaly(deg)": -176.37109019371056,
        "RAAN(deg)": 209.9699113355066,
        "Satellite Name": "Starlink Shell 1 933",
        "Satellite Number": 933,
        "Semi-Major Axis(m)": 6931778.249405717,
        "Time(s)": 580
    },
    {
        "Altitude(m)": 554769.2366306257,
        "Argument of Periapsis(deg)": 0.020566130291162974,
        "Eccentricity": 0.0,
        "Inclination(deg)": 53.0,
        "Latitude(deg)": -3.513927934463781,
        "Longitude(deg)": -69.82735049711157,
        "Mean Anomaly(deg)": -175.7442589901538,
        "RAAN(deg)": 209.96939256542913,
        "Satellite Name": "Starlink Shell 1 933",
        "Satellite Number": 933,
        "Semi-Major Axis(m)": 6931778.249405717,
        "Time(s)": 590
    },
    {
        "Altitude(m)": 554855.1984700806,
        "Argument of Periapsis(deg)": 0.020914708770674213,
        "Eccentricity": 0.0,
        "Inclination(deg)": 53.0,
        "Latitude(deg)": -4.017154251430882,
        "Longitude(deg)": -69.49041905122426,
        "Mean Anomaly(deg)": -175.11742778659712,
        "RAAN(deg)": 209.96887379535164,
        "Satellite Name": "Starlink Shell 1 933",
        "Satellite Number": 933,
        "Semi-Major Axis(m)": 6931778.249405717,
        "Time(s)": 600
    },
    {
        "Altitude(m)": 554943.8498520473,
        "Argument of Periapsis(deg)": 0.021263287250185448,
        "Eccentricity": 0.0,
        "Inclination(deg)": 53.0,
        "Latitude(deg)": -4.520187550573562,
        "Longitude(deg)": -69.15303281058677,
        "Mean Anomaly(deg)": -174.4905965830404,
        "RAAN(deg)": 209.96835502527418,
        "Satellite Name": "Starlink Shell 1 933",
        "Satellite Number": 933,
        "Semi-Major Axis(m)": 6931778.249405717,
        "Time(s)": 610
    },
    {
        "Altitude(m)": 555035.1714122543,
        "Argument of Periapsis(deg)": 0.021611865729696686,
        "Eccentricity": 0.0,
        "Inclination(deg)": 53.0,
        "Latitude(deg)": -5.023004550015807,
        "Longitude(deg)": -68.8151328885953,
        "Mean Anomaly(deg)": -173.86376537948365,
        "RAAN(deg)": 209.9678362551967,
        "Satellite Name": "Starlink Shell 1 933",
        "Satellite Number": 933,
        "Semi-Major Axis(m)": 6931778.249405717,
        "Time(s)": 620
    },
    {
        "Altitude(m)": 555129.1424696541,
        "Argument of Periapsis(deg)": 0.02196044420920792,
        "Eccentricity": 0.0,
        "Inclination(deg)": 53.0,
        "Latitude(deg)": -5.5255818656008016,
        "Longitude(deg)": -68.4766608496183,
        "Mean Anomaly(deg)": -173.23693417592696,
        "RAAN(deg)": 209.96731748511922,
        "Satellite Name": "Starlink Shell 1 933",
        "Satellite Number": 933,
        "Semi-Major Axis(m)": 6931778.249405717,
        "Time(s)": 630
    },
    {
        "Altitude(m)": 555225.7410339892,
        "Argument of Periapsis(deg)": 0.02230902268871916,
        "Eccentricity": 0.0,
        "Inclination(deg)": 53.0,
        "Latitude(deg)": -6.027895998730055,
        "Longitude(deg)": -68.13755733871679,
        "Mean Anomaly(deg)": -172.61010297237024,
        "RAAN(deg)": 209.96679871504173,
        "Satellite Name": "Starlink Shell 1 933",
        "Satellite Number": 933,
        "Semi-Major Axis(m)": 6931778.249405717,
        "Time(s)": 640
    },
    {
        "Altitude(m)": 555324.943814038,
        "Argument of Periapsis(deg)": 0.022657601168230398,
        "Eccentricity": 0.0,
        "Inclination(deg)": 53.0,
        "Latitude(deg)": -6.529923324092368,
        "Longitude(deg)": -67.79776323275847,
        "Mean Anomaly(deg)": -171.98327176881355,
        "RAAN(deg)": 209.96627994496427,
        "Satellite Name": "Starlink Shell 1 933",
        "Satellite Number": 933,
        "Semi-Major Axis(m)": 6931778.249405717,
        "Time(s)": 650
    },
    {
        "Altitude(m)": 555426.7262264901,
        "Argument of Periapsis(deg)": 0.023006179647741636,
        "Eccentricity": 0.0,
        "Inclination(deg)": 53.0,
        "Latitude(deg)": -7.031640077270431,
        "Longitude(deg)": -67.45721911049185,
        "Mean Anomaly(deg)": -171.35644056525683,
        "RAAN(deg)": 209.96576117488684,
        "Satellite Name": "Starlink Shell 1 933",
        "Satellite Number": 933,
        "Semi-Major Axis(m)": 6931778.249405717,
        "Time(s)": 660
    },
    {
        "Altitude(m)": 555531.0624054894,
        "Argument of Periapsis(deg)": 0.023354758127252868,
        "Eccentricity": 0.0,
        "Inclination(deg)": 53.0,
        "Latitude(deg)": -7.5330223422131475,
        "Longitude(deg)": -67.11586472254798,
        "Mean Anomaly(deg)": -170.7296093617001,
        "RAAN(deg)": 209.96524240480932,
        "Satellite Name": "Starlink Shell 1 933",
        "Satellite Number": 933,
        "Semi-Major Axis(m)": 6931778.249405717,
        "Time(s)": 670
    },
    {
        "Altitude(m)": 555637.9252127925,
        "Argument of Periapsis(deg)": 0.023703336606764106,
        "Eccentricity": 0.0,
        "Inclination(deg)": 53.0,
        "Latitude(deg)": -8.034046038563881,
        "Longitude(deg)": -66.77363997423905,
        "Mean Anomaly(deg)": -170.10277815814337,
        "RAAN(deg)": 209.96472363473188,
        "Satellite Name": "Starlink Shell 1 933",
        "Satellite Number": 933,
        "Semi-Major Axis(m)": 6931778.249405717,
        "Time(s)": 680
    },
    {
        "Altitude(m)": 555747.2862485703,
        "Argument of Periapsis(deg)": 0.024051915086275345,
        "Eccentricity": 0.0,
        "Inclination(deg)": 53.0,
        "Latitude(deg)": -8.534686908830558,
        "Longitude(deg)": -66.43048439540344,
        "Mean Anomaly(deg)": -169.47594695458665,
        "RAAN(deg)": 209.96420486465442,
        "Satellite Name": "Starlink Shell 1 933",
        "Satellite Number": 933,
        "Semi-Major Axis(m)": 6931778.249405717,
        "Time(s)": 690
    },
    {
        "Altitude(m)": 555859.1158628588,
        "Argument of Periapsis(deg)": 0.024400493565786583,
        "Eccentricity": 0.0,
        "Inclination(deg)": 53.0,
        "Latitude(deg)": -9.03492050538722,
        "Longitude(deg)": -66.08633661016889,
        "Mean Anomaly(deg)": -168.84911575102996,
        "RAAN(deg)": 209.96368609457693,
        "Satellite Name": "Starlink Shell 1 933",
        "Satellite Number": 933,
        "Semi-Major Axis(m)": 6931778.249405717,
        "Time(s)": 700
    },
    {
        "Altitude(m)": 555973.3831676003,
        "Argument of Periapsis(deg)": 0.024749072045297815,
        "Eccentricity": 0.0,
        "Inclination(deg)": 53.0,
        "Latitude(deg)": -9.534722177295478,
        "Longitude(deg)": -65.74113531950574,
        "Mean Anomaly(deg)": -168.2222845474733,
        "RAAN(deg)": 209.96316732449947,
        "Satellite Name": "Starlink Shell 1 933",
        "Satellite Number": 933,
        "Semi-Major Axis(m)": 6931778.249405717,
        "Time(s)": 710
    },
    {
        "Altitude(m)": 556090.0560493167,
        "Argument of Periapsis(deg)": 0.025097650524809053,
        "Eccentricity": 0.0,
        "Inclination(deg)": 53.0,
        "Latitude(deg)": -10.034067056932958,
        "Longitude(deg)": -65.39481877082241,
        "Mean Anomaly(deg)": -167.59545334391655,
        "RAAN(deg)": 209.96264855442197,
        "Satellite Name": "Starlink Shell 1 933",
        "Satellite Number": 933,
        "Semi-Major Axis(m)": 6931778.249405717,
        "Time(s)": 720
    },
    {
        "Altitude(m)": 556209.1011824001,
        "Argument of Periapsis(deg)": 0.02544622900432029,
        "Eccentricity": 0.0,
        "Inclination(deg)": 53.0,
        "Latitude(deg)": -10.532930046416546,
        "Longitude(deg)": -65.0473242274775,
        "Mean Anomaly(deg)": -166.9686221403598,
        "RAAN(deg)": 209.96212978434448,
        "Satellite Name": "Starlink Shell 1 933",
        "Satellite Number": 933,
        "Semi-Major Axis(m)": 6931778.249405717,
        "Time(s)": 730
    },
    {
        "Altitude(m)": 556330.4840430018,
        "Argument of Periapsis(deg)": 0.02579480748383153,
        "Eccentricity": 0.0,
        "Inclination(deg)": 53.0,
        "Latitude(deg)": -11.031285803810775,
        "Longitude(deg)": -64.69858895108354,
        "Mean Anomaly(deg)": -166.3417909368031,
        "RAAN(deg)": 209.96161101426702,
        "Satellite Name": "Starlink Shell 1 933",
        "Satellite Number": 933,
        "Semi-Major Axis(m)": 6931778.249405717,
        "Time(s)": 740
    },
    {
        "Altitude(m)": 556454.1689234839,
        "Argument of Periapsis(deg)": 0.026143385963342765,
        "Eccentricity": 0.0,
        "Inclination(deg)": 53.0,
        "Latitude(deg)": -11.529108729106246,
        "Longitude(deg)": -64.34854967085796,
        "Mean Anomaly(deg)": -165.71495973324636,
        "RAAN(deg)": 209.96109224418956,
        "Satellite Name": "Starlink Shell 1 933",
        "Satellite Number": 933,
        "Semi-Major Axis(m)": 6931778.249405717,
        "Time(s)": 750
    }
]